{"type": "FeatureCollection", "features": [ {"type": "Feature", "properties": {"norad_id": 35594, "name": "COSMOS 2251 DEB", "group": "cosmos-2251-debris", "lat": 46.13555865543417, "lon": 119.22914605662585, "alt_km": 619.6774427794562, "timestamp": "2025-12-15T04:01:20.848376+00:00", "meta": {"OBJECT_NAME": "COSMOS 2251 DEB", "OBJECT_ID": "1993-036AMM", "EPOCH": "2025-12-11T07:49:43.768128", "MEAN_MOTION": 14.87869065, "ECCENTRICITY": 0.00302327, "INCLINATION": 73.8067, "RA_OF_ASC_NODE": 109.3962, "ARG_OF_PERICENTER": 220.7507, "MEAN_ANOMALY": 139.1411, "EPHEMERIS_TYPE": 0, "CLASSIFICATION_TYPE": "U", "NORAD_CAT_ID": 35594, "ELEMENT_SET_NO": 999, "REV_AT_EPOCH": 88164, "BSTAR": 0.003372362, "MEAN_MOTION_DOT": 0.00031222, "MEAN_MOTION_DDOT": 0}, "tle": {"line1": "1 35594U 93036AMM 25345.32620102  .00031222  00000+0  33724-2 0  9992", "line2": "2 35594  73.8067 109.3962 0030232 220.7507 139.1411 14.87869065881643"}}, "geometry": {"type": "Point", "coordinates": [119.22914605662585, 46.13555865543417]}}, {"type": "Feature", "properties": {"norad_id": 35602, "name": "COSMOS 2251 DEB", "group": "cosmos-2251-debris", "lat": -28.606554491226337, "lon": 5.998368466252365, "alt_km": 414.07119381307984, "timestamp": "2025-12-15T04:01:20.848386+00:00", "meta": {"OBJECT_NAME": "COSMOS 2251 DEB", "OBJECT_ID": "1993-036AMV", "EPOCH": "2025-12-13T21:40:48.278784", "MEAN_MOTION": 15.3512957, "ECCENTRICITY": 0.00896645, "INCLINATION": 73.9937, "RA_OF_ASC_NODE": 179.7095, "ARG_OF_PERICENTER": 245.2603, "MEAN_ANOMALY": 181.07, "EPHEMERIS_TYPE": 0, "CLASSIFICATION_TYPE": "U", "NORAD_CAT_ID": 35602, "ELEMENT_SET_NO": 999, "REV_AT_EPOCH": 90109, "BSTAR": 0.00054767636, "MEAN_MOTION_DOT": 0.00021332, "MEAN_MOTION_DDOT": 0}, "tle": {"line1": "1 35602U 93036AMV 25347.90333656  .00021332  00000+0  54768-3 0  9996", "line2": "2 35602  73.9937 179.7095 0089664 245.2603 181.0700 15.35129570901093"}}, "geometry": {"type": "Point", "coordinates": [5.998368466252365, -28.606554491226337]}}, {"type": "Feature", "properties": {"norad_id": 35605, "name": "COSMOS 2251 DEB", "group": "cosmos-2251-debris", "lat": -68.97649745598531, "lon": -159.79159865668606, "alt_km": 448.22105252188703, "timestamp": "2025-12-15T04:01:20.848396+00:00", "meta": {"OBJECT_NAME": "COSMOS 2251 DEB", "OBJECT_ID": "1993-036AMY", "EPOCH": "2025-12-13T05:33:00.611712", "MEAN_MOTION": 15.34448038, "ECCENTRICITY": 0.00255309, "INCLINATION": 73.8715, "RA_OF_ASC_NODE": 335.5566, "ARG_OF_PERICENTER": 266.9711, "MEAN_ANOMALY": 92.8571, "EPHEMERIS_TYPE": 0, "CLASSIFICATION_TYPE": "U", "NORAD_CAT_ID": 35605, "ELEMENT_SET_NO": 999, "REV_AT_EPOCH": 65979, "BSTAR": 0.010289697, "MEAN_MOTION_DOT": 0.0036361, "MEAN_MOTION_DDOT": 0}, "tle": {"line1": "1 35605U 93036AMY 25347.23125708  .00363610  00000+0  10290-1 0  9990", "line2": "2 35605  73.8715 335.5566 0025530 266.9711  92.8571 15.34448038659790"}}, "geometry": {"type": "Point", "coordinates": [-159.79159865668606, -68.97649745598531]}}, {"type": "Feature", "properties": {"norad_id": 35606, "name": "COSMOS 2251 DEB", "group": "cosmos-2251-debris", "lat": 38.48734746862554, "lon": 20.28184195005027, "alt_km": 1439.9915411430093, "timestamp": "2025-12-15T04:01:20.848406+00:00", "meta": {"OBJECT_NAME": "COSMOS 2251 DEB", "OBJECT_ID": "1993-036AMZ", "EPOCH": "2025-12-14T08:06:44.151264", "MEAN_MOTION": 13.41214156, "ECCENTRICITY": 0.04574602, "INCLINATION": 73.8106, "RA_OF_ASC_NODE": 8.2494, "ARG_OF_PERICENTER": 213.7501, "MEAN_ANOMALY": 143.3697, "EPHEMERIS_TYPE": 0, "CLASSIFICATION_TYPE": "U", "NORAD_CAT_ID": 35606, "ELEMENT_SET_NO": 999, "REV_AT_EPOCH": 61061, "BSTAR": 0.00081200575, "MEAN_MOTION_DOT": 8.12e-06, "MEAN_MOTION_DDOT": 0}, "tle": {"line1": "1 35606U 93036AMZ 25348.33801101  .00000812  00000+0  81201-3 0  9995", "line2": "2 35606  73.8106   8.2494 0457460 213.7501 143.3697 13.41214156610614"}}, "geometry": {"type": "Point", "coordinates": [20.28184195005027, 38.48734746862554]}}, {"type": "Feature", "properties": {"norad_id": 35611, "name": "COSMOS 2251 DEB", "group": "cosmos-2251-debris", "lat": -52.41421469844304, "lon": 16.42727341766595, "alt_km": 643.4023347398197, "timestamp": "2025-12-15T04:01:20.848416+00:00", "meta": {"OBJECT_NAME": "COSMOS 2251 DEB", "OBJECT_ID": "1993-036ANE", "EPOCH": "2025-12-12T13:00:38.936448", "MEAN_MOTION": 14.7284119, "ECCENTRICITY": 0.00216473, "INCLINATION": 74.0197, "RA_OF_ASC_NODE": 179.6861, "ARG_OF_PERICENTER": 252.7152, "MEAN_ANOMALY": 107.1652, "EPHEMERIS_TYPE": 0, "CLASSIFICATION_TYPE": "U", "NORAD_CAT_ID": 35611, "ELEMENT_SET_NO": 999, "REV_AT_EPOCH": 87287, "BSTAR": 0.0030110834, "MEAN_MOTION_DOT": 0.00019366, "MEAN_MOTION_DDOT": 0}, "tle": {"line1": "1 35611U 93036ANE 25346.54211732  .00019366  00000+0  30111-2 0  9994", "line2": "2 35611  74.0197 179.6861 0021647 252.7152 107.1652 14.72841190872879"}}, "geometry": {"type": "Point", "coordinates": [16.42727341766595, -52.41421469844304]}}, {"type": "Feature", "properties": {"norad_id": 35614, "name": "COSMOS 2251 DEB", "group": "cosmos-2251-debris", "lat": -52.1863889903166, "lon": -59.00453695181358, "alt_km": 709.773482325727, "timestamp": "2025-12-15T04:01:20.848426+00:00", "meta": {"OBJECT_NAME": "COSMOS 2251 DEB", "OBJECT_ID": "1993-036ANH", "EPOCH": "2025-12-13T06:27:06.231168", "MEAN_MOTION": 14.67025191, "ECCENTRICITY": 0.00756959, "INCLINATION": 73.9589, "RA_OF_ASC_NODE": 326.4366, "ARG_OF_PERICENTER": 180.7813, "MEAN_ANOMALY": 179.3251, "EPHEMERIS_TYPE": 0, "CLASSIFICATION_TYPE": "U", "NORAD_CAT_ID": 35614, "ELEMENT_SET_NO": 999, "REV_AT_EPOCH": 87737, "BSTAR": 0.0013853104, "MEAN_MOTION_DOT": 8.085e-05, "MEAN_MOTION_DDOT": 0}, "tle": {"line1": "1 35614U 93036ANH 25347.26882212  .00008085  00000+0  13853-2 0  9994", "line2": "2 35614  73.9589 326.4366 0075695 180.7813 179.3251 14.67025191877378"}}, "geometry": {"type": "Point", "coordinates": [-59.00453695181358, -52.1863889903166]}}, {"type": "Feature", "properties": {"norad_id": 35645, "name": "COSMOS 2251 DEB", "group": "cosmos-2251-debris", "lat": -15.593228669760705, "lon": -92.21076528429533, "alt_km": 708.7706170196798, "timestamp": "2025-12-15T04:01:20.848436+00:00", "meta": {"OBJECT_NAME": "COSMOS 2251 DEB", "OBJECT_ID": "1993-036ANL", "EPOCH": "2025-12-13T14:34:24.235680", "MEAN_MOTION": 14.45604624, "ECCENTRICITY": 0.00695566, "INCLINATION": 73.964, "RA_OF_ASC_NODE": 86.1067, "ARG_OF_PERICENTER": 243.7291, "MEAN_ANOMALY": 115.6708, "EPHEMERIS_TYPE": 0, "CLASSIFICATION_TYPE": "U", "NORAD_CAT_ID": 35645, "ELEMENT_SET_NO": 999, "REV_AT_EPOCH": 86784, "BSTAR": 0.0025198742, "MEAN_MOTION_DOT": 9.157e-05, "MEAN_MOTION_DDOT": 0}, "tle": {"line1": "1 35645U 93036ANL 25347.60722495  .00009157  00000+0  25199-2 0  9999", "line2": "2 35645  73.9640  86.1067 0069556 243.7291 115.6708 14.45604624867848"}}, "geometry": {"type": "Point", "coordinates": [-92.21076528429533, -15.593228669760705]}}, {"type": "Feature", "properties": {"norad_id": 35646, "name": "COSMOS 2251 DEB", "group": "cosmos-2251-debris", "lat": -65.23582506678605, "lon": 13.334120495036169, "alt_km": 1309.2436177649806, "timestamp": "2025-12-15T04:01:20.848446+00:00", "meta": {"OBJECT_NAME": "COSMOS 2251 DEB", "OBJECT_ID": "1993-036ANM", "EPOCH": "2025-12-13T22:48:54.762048", "MEAN_MOTION": 13.40824299, "ECCENTRICITY": 0.04568125, "INCLINATION": 73.8726, "RA_OF_ASC_NODE": 54.1071, "ARG_OF_PERICENTER": 164.0907, "MEAN_ANOMALY": 8.5951, "EPHEMERIS_TYPE": 0, "CLASSIFICATION_TYPE": "U", "NORAD_CAT_ID": 35646, "ELEMENT_SET_NO": 999, "REV_AT_EPOCH": 81874, "BSTAR": 0.00096835294, "MEAN_MOTION_DOT": 9.67e-06, "MEAN_MOTION_DDOT": 0}, "tle": {"line1": "1 35646U 93036ANM 25347.95063382  .00000967  00000+0  96835-3 0  9997", "line2": "2 35646  73.8726  54.1071 0456812 164.0907   8.5951 13.40824299818748"}}, "geometry": {"type": "Point", "coordinates": [13.334120495036169, -65.23582506678605]}}, {"type": "Feature", "properties": {"norad_id": 35647, "name": "COSMOS 2251 DEB", "group": "cosmos-2251-debris", "lat": -64.89868545252816, "lon": 147.75256709129474, "alt_km": 777.4537330790163, "timestamp": "2025-12-15T04:01:20.848457+00:00", "meta": {"OBJECT_NAME": "COSMOS 2251 DEB", "OBJECT_ID": "1993-036ANN", "EPOCH": "2025-12-13T14:16:38.061408", "MEAN_MOTION": 14.43640489, "ECCENTRICITY": 0.00455628, "INCLINATION": 74.0232, "RA_OF_ASC_NODE": 292.9744, "ARG_OF_PERICENTER": 31.8432, "MEAN_ANOMALY": 328.5464, "EPHEMERIS_TYPE": 0, "CLASSIFICATION_TYPE": "U", "NORAD_CAT_ID": 35647, "ELEMENT_SET_NO": 999, "REV_AT_EPOCH": 67676, "BSTAR": 0.0011040482, "MEAN_MOTION_DOT": 3.768e-05, "MEAN_MOTION_DDOT": 0}, "tle": {"line1": "1 35647U 93036ANN 25347.59488497  .00003768  00000+0  11040-2 0  9992", "line2": "2 35647  74.0232 292.9744 0045562  31.8432 328.5464 14.43640489676762"}}, "geometry": {"type": "Point", "coordinates": [147.75256709129474, -64.89868545252816]}}, {"type": "Feature", "properties": {"norad_id": 35650, "name": "COSMOS 2251 DEB", "group": "cosmos-2251-debris", "lat": 49.149737691239665, "lon": 33.38905757419804, "alt_km": 602.704630188482, "timestamp": "2025-12-15T04:01:20.848467+00:00", "meta": {"OBJECT_NAME": "COSMOS 2251 DEB", "OBJECT_ID": "1993-036ANR", "EPOCH": "2025-12-14T08:25:39.461088", "MEAN_MOTION": 14.83681914, "ECCENTRICITY": 0.00146754, "INCLINATION": 74.0466, "RA_OF_ASC_NODE": 15.6866, "ARG_OF_PERICENTER": 62.1193, "MEAN_ANOMALY": 310.7797, "EPHEMERIS_TYPE": 0, "CLASSIFICATION_TYPE": "U", "NORAD_CAT_ID": 35650, "ELEMENT_SET_NO": 999, "REV_AT_EPOCH": 87658, "BSTAR": 0.0017772304, "MEAN_MOTION_DOT": 0.0001471, "MEAN_MOTION_DDOT": 0}, "tle": {"line1": "1 35650U 93036ANR 25348.35115117  .00014710  00000+0  17772-2 0  9994", "line2": "2 35650  74.0466  15.6866 0014675  62.1193 310.7797 14.83681914876588"}}, "geometry": {"type": "Point", "coordinates": [33.38905757419804, 49.149737691239665]}}]}